[{"OBJECT_NAME":"KAZSTSAT","OBJECT_ID":"2018-099AB","EPOCH":"2026-03-09T14:51:18.118944","MEAN_MOTION":14.99620503,"ECCENTRICITY":0.0006528,"INCLINATION":97.4396,"RA_OF_ASC_NODE":105.0128,"ARG_OF_PERICENTER":11.1145,"MEAN_ANOMALY":349.0222,"EPHEMERIS_TYPE":0,"CLASSIFICATION_TYPE":"U","NORAD_CAT_ID":43783,"ELEMENT_SET_NO":999,"REV_AT_EPOCH":39638,"BSTAR":0.00011446,"MEAN_MOTION_DOT":1.354e-5,"MEAN_MOTION_DDOT":0},{"OBJECT_NAME":"STARLINK-5963","OBJECT_ID":"2023-078P","EPOCH":"2026-03-09T22:36:37.292256","MEAN_MOTION":14.98325214,"ECCENTRICITY":0.00031842,"INCLINATION":69.9995,"RA_OF_ASC_NODE":343.6188,"ARG_OF_PERICENTER":270.1252,"MEAN_ANOMALY":89.9542,"EPHEMERIS_TYPE":0,"CLASSIFICATION_TYPE":"U","NORAD_CAT_ID":56780,"ELEMENT_SET_NO":999,"REV_AT_EPOCH":15272,"BSTAR":-7.7185968e-5,"MEAN_MOTION_DOT":-1.014e-5,"MEAN_MOTION_DDOT":0}]
